{"type": "FeatureCollection", "features": [ {"type": "Feature", "properties": {"norad_id": 58662, "name": "TIANMU-1 21", "group": "weather", "lat": -75.2806898145465, "lon": -112.73102668762121, "alt_km": 474.95108259010885, "timestamp": "2025-12-09T16:56:36.223577+00:00", "meta": {"OBJECT_NAME": "TIANMU-1 21", "OBJECT_ID": "2023-208C", "EPOCH": "2025-12-09T12:41:12.234048", "MEAN_MOTION": 15.31442036, "ECCENTRICITY": 0.0005887, "INCLINATION": 97.4376, "RA_OF_ASC_NODE": 96.9109, "ARG_OF_PERICENTER": 273.6353, "MEAN_ANOMALY": 86.4215, "EPHEMERIS_TYPE": 0, "CLASSIFICATION_TYPE": "U", "NORAD_CAT_ID": 58662, "ELEMENT_SET_NO": 999, "REV_AT_EPOCH": 10850, "BSTAR": 0.00052376, "MEAN_MOTION_DOT": 0.00015849, "MEAN_MOTION_DDOT": 0}, "tle": {"line1": "1 58662U 23208C   25343.52861382  .00015849  00000+0  52376-3 0  9996", "line2": "2 58662  97.4376  96.9109 0005887 273.6353  86.4215 15.31442036108505"}}, "geometry": {"type": "Point", "coordinates": [-112.73102668762121, -75.2806898145465]}}, {"type": "Feature", "properties": {"norad_id": 58663, "name": "TIANMU-1 22", "group": "weather", "lat": -42.06166183248216, "lon": -91.96069737443189, "alt_km": 489.565297743412, "timestamp": "2025-12-09T16:56:36.223587+00:00", "meta": {"OBJECT_NAME": "TIANMU-1 22", "OBJECT_ID": "2023-208D", "EPOCH": "2025-12-09T11:15:21.039264", "MEAN_MOTION": 15.27515971, "ECCENTRICITY": 0.0002789, "INCLINATION": 97.4383, "RA_OF_ASC_NODE": 94.5734, "ARG_OF_PERICENTER": 303.2664, "MEAN_ANOMALY": 56.8308, "EPHEMERIS_TYPE": 0, "CLASSIFICATION_TYPE": "U", "NORAD_CAT_ID": 58663, "ELEMENT_SET_NO": 999, "REV_AT_EPOCH": 10833, "BSTAR": 0.00046977, "MEAN_MOTION_DOT": 0.0001258, "MEAN_MOTION_DDOT": 0}, "tle": {"line1": "1 58663U 23208D   25343.46899351  .00012580  00000+0  46977-3 0  9996", "line2": "2 58663  97.4383  94.5734 0002789 303.2664  56.8308 15.27515971108334"}}, "geometry": {"type": "Point", "coordinates": [-91.96069737443189, -42.06166183248216]}}, {"type": "Feature", "properties": {"norad_id": 58700, "name": "TIANMU-1 15", "group": "weather", "lat": 23.380744793776955, "lon": 161.9377803869271, "alt_km": 490.4323767032083, "timestamp": "2025-12-09T16:56:36.223600+00:00", "meta": {"OBJECT_NAME": "TIANMU-1 15", "OBJECT_ID": "2024-004A", "EPOCH": "2025-12-09T12:06:53.130240", "MEAN_MOTION": 15.24613244, "ECCENTRICITY": 0.0005335, "INCLINATION": 97.463, "RA_OF_ASC_NODE": 164.9863, "ARG_OF_PERICENTER": 312.2476, "MEAN_ANOMALY": 47.8309, "EPHEMERIS_TYPE": 0, "CLASSIFICATION_TYPE": "U", "NORAD_CAT_ID": 58700, "ELEMENT_SET_NO": 999, "REV_AT_EPOCH": 10685, "BSTAR": 0.00041769, "MEAN_MOTION_DOT": 0.0001024, "MEAN_MOTION_DDOT": 0}, "tle": {"line1": "1 58700U 24004A   25343.50478160  .00010240  00000+0  41769-3 0  9994", "line2": "2 58700  97.4630 164.9863 0005335 312.2476  47.8309 15.24613244106852"}}, "geometry": {"type": "Point", "coordinates": [161.9377803869271, 23.380744793776955]}}, {"type": "Feature", "properties": {"norad_id": 58701, "name": "TIANMU-1 16", "group": "weather", "lat": 70.35967833067586, "lon": 6.110319564804627, "alt_km": 488.85277425133063, "timestamp": "2025-12-09T16:56:36.223611+00:00", "meta": {"OBJECT_NAME": "TIANMU-1 16", "OBJECT_ID": "2024-004B", "EPOCH": "2025-12-09T13:19:10.352352", "MEAN_MOTION": 15.24365763, "ECCENTRICITY": 0.0004642, "INCLINATION": 97.4569, "RA_OF_ASC_NODE": 164.4285, "ARG_OF_PERICENTER": 310.5776, "MEAN_ANOMALY": 49.5057, "EPHEMERIS_TYPE": 0, "CLASSIFICATION_TYPE": "U", "NORAD_CAT_ID": 58701, "ELEMENT_SET_NO": 999, "REV_AT_EPOCH": 10686, "BSTAR": 0.00040877, "MEAN_MOTION_DOT": 9.944e-05, "MEAN_MOTION_DDOT": 0}, "tle": {"line1": "1 58701U 24004B   25343.55498093  .00009944  00000+0  40877-3 0  9995", "line2": "2 58701  97.4569 164.4285 0004642 310.5776  49.5057 15.24365763106861"}}, "geometry": {"type": "Point", "coordinates": [6.110319564804627, 70.35967833067586]}}, {"type": "Feature", "properties": {"norad_id": 58702, "name": "TIANMU-1 17", "group": "weather", "lat": -12.153136730458789, "lon": -16.629842360769782, "alt_km": 498.4657367196978, "timestamp": "2025-12-09T16:56:36.223621+00:00", "meta": {"OBJECT_NAME": "TIANMU-1 17", "OBJECT_ID": "2024-004C", "EPOCH": "2025-12-09T12:57:07.423200", "MEAN_MOTION": 15.2440978, "ECCENTRICITY": 0.0003859, "INCLINATION": 97.4604, "RA_OF_ASC_NODE": 164.8217, "ARG_OF_PERICENTER": 314.337, "MEAN_ANOMALY": 45.7551, "EPHEMERIS_TYPE": 0, "CLASSIFICATION_TYPE": "U", "NORAD_CAT_ID": 58702, "ELEMENT_SET_NO": 999, "REV_AT_EPOCH": 10685, "BSTAR": 0.00041785, "MEAN_MOTION_DOT": 0.0001018, "MEAN_MOTION_DDOT": 0}, "tle": {"line1": "1 58702U 24004C   25343.53966925  .00010180  00000+0  41785-3 0  9991", "line2": "2 58702  97.4604 164.8217 0003859 314.3370  45.7551 15.24409780106856"}}, "geometry": {"type": "Point", "coordinates": [-16.629842360769782, -12.153136730458789]}}, {"type": "Feature", "properties": {"norad_id": 58703, "name": "TIANMU-1 18", "group": "weather", "lat": -74.37227197429095, "lon": -166.876612740668, "alt_km": 498.0198399243609, "timestamp": "2025-12-09T16:56:36.223632+00:00", "meta": {"OBJECT_NAME": "TIANMU-1 18", "OBJECT_ID": "2024-004D", "EPOCH": "2025-12-09T12:33:03.616992", "MEAN_MOTION": 15.24398811, "ECCENTRICITY": 0.0003221, "INCLINATION": 97.4621, "RA_OF_ASC_NODE": 164.9997, "ARG_OF_PERICENTER": 315.6027, "MEAN_ANOMALY": 44.4952, "EPHEMERIS_TYPE": 0, "CLASSIFICATION_TYPE": "U", "NORAD_CAT_ID": 58703, "ELEMENT_SET_NO": 999, "REV_AT_EPOCH": 10685, "BSTAR": 0.00042062, "MEAN_MOTION_DOT": 0.00010244, "MEAN_MOTION_DDOT": 0}, "tle": {"line1": "1 58703U 24004D   25343.52295853  .00010244  00000+0  42062-3 0  9996", "line2": "2 58703  97.4621 164.9997 0003221 315.6027  44.4952 15.24398811106851"}}, "geometry": {"type": "Point", "coordinates": [-166.876612740668, -74.37227197429095]}}, {"type": "Feature", "properties": {"norad_id": 58990, "name": "INSAT-3DS", "group": "weather", "lat": 0.0077343695903112665, "lon": 54.92700127774392, "alt_km": 35792.739098383165, "timestamp": "2025-12-09T16:56:36.223646+00:00", "meta": {"OBJECT_NAME": "INSAT-3DS", "OBJECT_ID": "2024-033A", "EPOCH": "2025-12-09T10:32:25.112256", "MEAN_MOTION": 1.00269598, "ECCENTRICITY": 0.0001637, "INCLINATION": 0.0204, "RA_OF_ASC_NODE": 89.9814, "ARG_OF_PERICENTER": 174.4971, "MEAN_ANOMALY": 54.1353, "EPHEMERIS_TYPE": 0, "CLASSIFICATION_TYPE": "U", "NORAD_CAT_ID": 58990, "ELEMENT_SET_NO": 999, "REV_AT_EPOCH": 4516, "BSTAR": 0, "MEAN_MOTION_DOT": -1.53e-06, "MEAN_MOTION_DDOT": 0}, "tle": {"line1": "1 58990U 24033A   25343.43917954 -.00000153  00000+0  00000+0 0  9990", "line2": "2 58990   0.0204  89.9814 0001637 174.4971  54.1353  1.00269598 45165"}}, "geometry": {"type": "Point", "coordinates": [54.92700127774392, 0.0077343695903112665]}}, {"type": "Feature", "properties": {"norad_id": 59051, "name": "METEOR-M2 4", "group": "weather", "lat": 48.08179902606898, "lon": 130.45449603573653, "alt_km": 815.802545792787, "timestamp": "2025-12-09T16:56:36.223658+00:00", "meta": {"OBJECT_NAME": "METEOR-M2 4", "OBJECT_ID": "2024-039A", "EPOCH": "2025-12-09T12:57:10.898208", "MEAN_MOTION": 14.22400528, "ECCENTRICITY": 0.0007224, "INCLINATION": 98.6762, "RA_OF_ASC_NODE": 300.4989, "ARG_OF_PERICENTER": 7.6925, "MEAN_ANOMALY": 352.4363, "EPHEMERIS_TYPE": 0, "CLASSIFICATION_TYPE": "U", "NORAD_CAT_ID": 59051, "ELEMENT_SET_NO": 999, "REV_AT_EPOCH": 9230, "BSTAR": 6.3889e-05, "MEAN_MOTION_DOT": 9.9e-07, "MEAN_MOTION_DDOT": 0}, "tle": {"line1": "1 59051U 24039A   25343.53970947  .00000099  00000+0  63889-4 0  9994", "line2": "2 59051  98.6762 300.4989 0007224   7.6925 352.4363 14.22400528 92305"}}, "geometry": {"type": "Point", "coordinates": [130.45449603573653, 48.08179902606898]}}, {"type": "Feature", "properties": {"norad_id": 60133, "name": "GOES 19", "group": "weather", "lat": 0.0019291250119446005, "lon": -102.35323494069237, "alt_km": 35782.36735776953, "timestamp": "2025-12-09T16:56:36.223670+00:00", "meta": {"OBJECT_NAME": "GOES 19", "OBJECT_ID": "2024-119A", "EPOCH": "2025-12-09T09:20:45.297024", "MEAN_MOTION": 1.00271447, "ECCENTRICITY": 0.0001367, "INCLINATION": 0.0182, "RA_OF_ASC_NODE": 156.8959, "ARG_OF_PERICENTER": 149.196, "MEAN_ANOMALY": 197.296, "EPHEMERIS_TYPE": 0, "CLASSIFICATION_TYPE": "U", "NORAD_CAT_ID": 60133, "ELEMENT_SET_NO": 999, "REV_AT_EPOCH": 506, "BSTAR": 0, "MEAN_MOTION_DOT": -2.46e-06, "MEAN_MOTION_DDOT": 0}, "tle": {"line1": "1 60133U 24119A   25343.38941316 -.00000246  00000+0  00000+0 0  9993", "line2": "2 60133   0.0182 156.8959 0001367 149.1960 197.2960  1.00271447  5067"}}, "geometry": {"type": "Point", "coordinates": [-102.35323494069237, 0.0019291250119446005]}}, {"type": "Feature", "properties": {"norad_id": 65815, "name": "FENGYUN 3H", "group": "weather", "lat": 36.588615171612794, "lon": -83.13244328307054, "alt_km": 822.7543741944855, "timestamp": "2025-12-09T16:56:36.223684+00:00", "meta": {"OBJECT_NAME": "FENGYUN 3H", "OBJECT_ID": "2025-219A", "EPOCH": "2025-12-09T10:00:16.208064", "MEAN_MOTION": 14.19903329, "ECCENTRICITY": 6.06e-05, "INCLINATION": 98.658, "RA_OF_ASC_NODE": 283.0795, "ARG_OF_PERICENTER": 85.0513, "MEAN_ANOMALY": 275.0732, "EPHEMERIS_TYPE": 0, "CLASSIFICATION_TYPE": "U", "NORAD_CAT_ID": 65815, "ELEMENT_SET_NO": 999, "REV_AT_EPOCH": 1045, "BSTAR": 0.00011546, "MEAN_MOTION_DOT": 2.02e-06, "MEAN_MOTION_DDOT": 0}, "tle": {"line1": "1 65815U 25219A   25343.41685426  .00000202  00000+0  11546-3 0  9990", "line2": "2 65815  98.6580 283.0795 0000606  85.0513 275.0732 14.19903329 10458"}}, "geometry": {"type": "Point", "coordinates": [-83.13244328307054, 36.588615171612794]}}]}